city,lat,lng,station,avg temp F August 2018,zips
Freedom Acres,34.3199,-111.3051,PAYSON ,82,85541
Teec Nos Pos,36.9221,-109.0753,TEEC NOS POS,84.5,86514
Crozier,35.4227,-113.6486,MUSIC MOUNTAIN ,81,86437 86434
Avondale,33.3858,-112.3236,LITCHFIELD PARK,98.5,85323 85392 85329
Alpine,33.8461,-109.1432,ALPINE,64,85920
Elfrida,31.6858,-109.6896,MC NEAL,85,85610
North Fork,33.9965,-109.9593,PINETOP 2E,70.5,85941
Kaibito,36.592,-111.1071,PAGE MUNICIPAL AP,90,86053
Lower Santan Village,33.1427,-111.7853,CASA GRANDE NATL MONUMENT,93.5,85147
St. David,31.8992,-110.2251,BENSON,83,85630
Ash Fork,35.2171,-112.4913,WILLIAMS,71.5,86320
Poston,33.9921,-114.4046,PARKER,100.5,85371
Drysdale,32.6452,-114.7067,YUMA MCAS - COOP,98.5,85365
Heber-Overgaard,34.4141,-110.5696,HEBER ,73.5,85933 85928
Three Points,32.0596,-111.2865,ANVIL RANCH,88.5,85735 85736
Seligman,35.3256,-112.8573,SELIGMAN,78,86337
Sacate Village,33.1416,-111.98100000000001,PHOENIX AIRPORT,101,85339 85121
Burnside,35.7534,-109.6248,CANYON DE CHELLY,81.5,86505
Tuba City,36.125,-111.2467,WUPATKI NM,88.5,86045
Roosevelt,33.6618,-111.1295,WORKMAN CREEK,68.5,85545
Winslow,35.0252,-110.7098,WINSLOW MUNICIPAL AP,84.5,86047
Crystal Beach,34.5714,-114.3926,LAKE HAVASU CITY,94,86404
Scottsdale,33.6872,-111.8651,SCOTTSDALE MUNICIPAL AP,98.5,85259 85258 85251 85250 85257 85255 85254 85266 85262 85260 85252 85261 85267 85271
Mesa,33.4017,-111.7181,MESA,96,85208 85209 85201 85202 85203 85204 85205 85206 85207 85215 85213 85212 85210 85211 85214 85216 85274 85275 85277
Greer,34.0053,-109.4611,BALDY,63,85927
Kohls Ranch,34.321,-111.0838,PROMONTORY ,69,85541
Tolleson,33.4484,-112.2561,LITCHFIELD PARK,98.5,85353
Maricopa,33.0404,-112.0006,ROBSON RANCH,96,85138 85139
Canyon Day,33.7826,-110.0328,MOUNTAIN LION ,70,85941
Chiawuli Tak,31.941,-111.7765,SELLES ,92,85634
Black Canyon City,34.0709,-112.12200000000001,SUNSET POINT ,87.5,85324
Hackberry,35.3401,-113.7256,KINGMAN AIRPORT,87.5,86411 86401
New Kingman-Butler,35.2645,-114.0091,KINGMAN AIRPORT,87.5,86409
Ajo,32.3923,-112.8839,AJO,95,85321
Surprise,33.68,-112.4524,WITTMANN,95.5,85361 85379 85388 85387 85374 85375 85378
Sun City West,33.6693,-112.3575,YOUNGTOWN,97,85375 85376
Dolan Springs,35.5904,-114.2852,UNION PASS ,90,86441
Marana,32.4355,-111.1558,TOHONO CHUL,89.5,85653 85741 85743 85742 85658 85652 85740
San Miguel,31.6295,-111.7801,SASABE ,85,85634
Tusayan,35.955,-112.1202,TUSAYAN ,71.5,86023
Holbrook,34.9044,-110.1672,PETRIFIED FOREST NP,78,86025
Seven Mile,33.7882,-109.9576,MOUNTAIN LION ,70,85941 85926
Wet Camp Village,33.1413,-111.9004,TEMPE,96,85121
Gilbert,33.3103,-111.7463,MESA,96,85233 85234 85297 85296 85295 85298 85236 85299
Winkelman,32.9853,-110.7651,HORSE CAMP CANYON ,88,85192
Round Rock,36.5044,-109.4616,CANYON DE CHELLY,81.5,86547
St. Johns,34.5018,-109.3784,ST JOHNS INDUSTRIAL AIR PARK,81,85936
Six Shooter Canyon,33.3568,-110.772,GLOBE ,84,85501
Aztec,32.8082,-113.4428,TACNA,99.5,85333
Solomon,32.8138,-109.6291,SAFFORD MUNICIPAL AP,90.5,85546 85551
First Mesa,35.8389,-110.3665,HOPI ,78,86042
Rock House,33.6318,-110.9456,WORKMAN CREEK,68.5,85501
Springerville,34.156,-109.2989,SPRINGERVILLE,72,85938
Steamboat,35.7535,-109.8503,HOPI ,78,86505
Morristown,33.8549,-112.6138,WITTMANN,95.5,85342
Snowflake,34.5223,-110.0914,SHOW LOW AIRPORT,70,85937
Corona de Tucson,31.9495,-110.7836,GREEN VALLEY,88.5,85641
Chuichu,32.7403,-111.7821, CITY,92.5,85193
Sunizona,31.8841,-109.6328,PEARCE - SUNSITES,81.5,85625
Fort Valley,35.2554,-111.7253,FORT VALLEY,66.5,86001
Paulden,34.8899,-112.4938,CHINO VALLEY,80.5,86323 86334
Sedona,34.8574,-111.7951,OAK CREEK ,81,86336 86339 86340
Kaka,32.5113,-112.3168,AJO,95,85321
Flowing Springs,34.3131,-111.3379,PAYSON ,82,85541
Village of Oak Creek,34.7813,-111.7606,BAR M,71.5,86351 86341
Bear Flat,34.2925,-111.0674,PROMONTORY ,69,85541
Concho,34.4744,-109.6102,SAINT JOHNS,80,85924
Queen Valley,33.283,-111.3049,APACHE JUNCTION,93,85118
Pinon,36.0992,-110.2209,HOPI ,78,86510
Beaver Valley,34.3409,-111.2987,PAYSON ,82,85541
Vernon,34.2508,-109.6926,MC NARY,68,85940
Pinal,33.3799,-110.7571,GLOBE ,84,85501
Lake Havasu City,34.5006,-114.3113,LAKE HAVASU CITY,94,86403 86406 86404 86405
Dripping Springs,33.105,-110.7552,SAN CARLOS RESERVOIR,87.5,85192
Vail,32.0217,-110.6937,SAGUARO NATIONAL PARK,88.5,85641 85744
Tolani Lake,35.4309,-110.8431,WINSLOW MUNICIPAL AP,84.5,86047
Parker Strip,34.2803,-114.1269,PARKER,100.5,85344
Woodruff,34.7843,-110.0366,PETRIFIED FOREST NP,78,85942 86025
Sonoita,31.6645,-110.6426,SONOITA,77.5,85637
Ali Molina,31.9025,-111.7804,SELLES ,92,85634
Tacna,32.7004,-113.9618,TACNA,99.5,85352 85347
Whiteriver,33.8358,-109.9616,MOUNTAIN LION ,70,85941
Leupp,35.2966,-111.0028,TWIN ARROWS,80,86035 86004
Wenden,33.8324,-113.5433,SMITH PEAK ,95,85357
Topawa,31.8078,-111.8304,SELLES ,92,85634 85639
Patagonia,31.5436,-110.7477,NOGALES INTL AP,84,85624
Tombstone,31.7234,-110.0798,TOMBSTONE,80,85638
Top-of-the-World,33.3477,-110.9997,GLOBE ,84,85539 85501
Rincon Valley,32.1101,-110.6889,SAGUARO NATIONAL PARK,88.5,85747 85641
Ak Chin,32.2873,-112.0091,SELLES ,92,85634
Valencia West,32.1354,-111.1124,TUCSON,93,85757
Willow Canyon,32.3881,-110.7009,MT. LEMMON WILLOW CANYON,71.5,85619
Ko Vaya,32.0815,-111.8959,SELLES ,92,85634
Dewey-Humboldt,34.5174,-112.2498,PRESCOTT,79,86329 86327
Mescal,31.9674,-110.4367,KARTCHNER CAVERNS,77.5,85602
Del Muerto,36.187,-109.4348,CANYON DE CHELLY,81.5,86503
Colorado City,36.9774,-112.98299999999999,HURRICANE ,83.5,86021
Morenci,33.0531,-109.3307,GUTHRIE ,77.5,85540
Fort Apache,33.7907,-109.9873,MOUNTAIN LION ,70,85926
Nazlini,35.9156,-109.4726,CANYON DE CHELLY,81.5,86540
Bylas,33.1292,-110.1162,BLACK HILLS,89.5,85530
Picture Rocks,32.3274,-111.2558,TUCSON,93,85653 85743
Wittmann,33.775,-112.5251,WITTMANN,95.5,85361
Wheatfields,33.4805,-110.8366,GLOBE ,84,85501
Sun City,33.6165,-112.2819,YOUNGTOWN,97,85351 85373 85372
Tucson,32.1545,-110.8782,TUCSON INTERNATIONAL AIRPORT,93,85705 85707 85706 85756 85723 85726 85724 85701 85708 85711 85748 85745 85747 85716 85714 85715 85712 85713 85710 85719 85730 85702 85703 85709 85717 85720 85721 85722 85725 85731 85732 85738 85751 85754 85775
Quartzsite,33.6675,-114.21700000000001,QUARTZSITE,100,85346 85359
Eloy,32.747,-111.5991,ROBSON RANCH,96,85131 85194 85193 85123
Hotevilla-Bacavi,35.9225,-110.6569,HOPI ,78,86030
Second Mesa,35.8222,-110.4884,HOPI ,78,86043
Cactus Flats,32.7642,-109.7205,SAFFORD AGRICULTURAL CENTER,87.5,85546 85548
St. Michaels,35.6606,-109.0962,WINDOW ROCK AIRPORT,72.5,86511
Phoenix,33.5722,-112.0891,DEER VALLEY,95.5,85008 85009 85006 85007 85004 85083 85086 85087 85085 85383 85033 85304 85306 85308 85020 85021 85022 85023 85024 85027 85028 85029 85353 85019 85018 85013 85012 85015 85014 85017 85016 85254 85003 85044 85045 85042 85043 85040 85041 85048 85054 85037 85035 85034 85032 85031 85307 85310 85051 85050 85053 85001 85002 85005 85010 85011 85026 85030 85036 85038 85046 85060 85061 85062 85063 85064 85065 85066 85067 85068 85069 85070 85071 85072 85073 85074 85075 85076 85078 85079 85080 85082
Cane Beds,36.9341,-112.9118,HURRICANE ,83.5,86022
Kykotsmovi Village,35.8576,-110.6338,HOPI ,78,86039 86030
Cornville,34.7389,-111.9086,TUZIGOOT,88,86325
Doney Park,35.2687,-111.5053,WALNUT CANYON N.M.,79.5,86004
Deer Creek,34.0644,-111.3505,PAYSON ,82,85541
Catalina,32.4849,-110.8996,CATALINA STATE PARK,87.5,85739
Goodyear,33.2614,-112.3622,LITCHFIELD PARK,98.5,85139 85338 85326 85340 85395
Youngtown,33.5846,-112.3047,YOUNGTOWN,97,85363
Fort Mohave,35.0004,-114.5748,BULLHEAD CITY,100,86426 86427
Payson,34.2434,-111.3195,PAYSON ,82,85541 85547
Wahak Hotrontk,32.1748,-112.3663,ORGAN PIPE CACTUS NM,94,85634
Shongopovi,35.8195,-110.5331,HOPI ,78,86043
Pine,34.3788,-111.4574,NATURAL BRIDGE,77,85544
Indian Wells,35.4089,-110.1061,HOPI ,78,86031
Benson,31.9157,-110.3256,BENSON,83,85602 85630
Franklin,32.677,-109.072,DUNCAN,83.5,85534
Yarnell,34.2283,-112.7631,STANTON ,90,85362
Blackwater,33.0396,-111.5798,CASA GRANDE NATL MONUMENT,93.5,85128
Vicksburg,33.7293,-113.8254,QUARTZSITE,100,85325 85348
Low Mountain,35.9481,-110.0981,HOPI ,78,86520 86510 86034
Wikieup,34.6931,-113.5995,WIKIEUP,92,85360
Moccasin,36.9099,-112.7546,GUNSIGHT,84.5,86022
Valle,35.6245,-112.135,TUSAYAN ,71.5,86046
Pirtleville,31.3613,-109.5661,DOUGLAS,81,85626 85607
Whitecone,35.6037,-110.0791,HOPI ,78,86031 86034
Green Valley,31.8437,-111.0172,GREEN VALLEY,88.5,85622 85614
Beyerville,31.3921,-110.8748,NOGALES INTL AP,84,85621
Tubac,31.6111,-111.0585,TUMACACORI NM,79.5,85640 85646
San Manuel,32.6091,-110.6415,SAN MANUEL,88,85631
Fort Defiance,35.7469,-109.0685,WINDOW ROCK AIRPORT,72.5,86504
Cutter,33.3584,-110.6593,GLOBE ,84,85550
Tonto Village,34.3198,-111.1393,PROMONTORY ,69,85541
Casa Grande,32.9068,-111.7624,ROBSON RANCH,96,85194 85193 85122 85130
Star Valley,34.2611,-111.2197,PAYSON ,82,85541
Casa Blanca,33.1154,-111.90799999999999,TEMPE,96,85121
Cornfields,35.6513,-109.6759,HOPI ,78,86505
Avenue B and C,32.7192,-114.6597,YUMA QUARTERMASTER DEPOT,97.5,85364
El Mirage,33.5905,-112.3271,YOUNGTOWN,97,85335
Kohatk,32.5782,-112.0033, CITY,92.5,85634
Summerhaven,32.4416,-110.7766,MT. LEMMON FIRE DEPT,67,85619
Dennehotso,36.8209,-109.87899999999999,BETATAKIN,77.5,86535
Hard Rock,36.0309,-110.5048,HOPI ,78,86039
Guadalupe,33.3664,-111.9633,TEMPE,96,85283
Williams,35.2476,-112.1833,WILLIAMS,71.5,86046
Wilhoit,34.4083,-112.6156,IRON SPRINGS ,77,86332
Kachina Village,35.0949,-111.6927,FLAGSTAFF,70.5,86001
La Paz Valley,33.5578,-114.2434,QUARTZSITE,100,85346
Theba,32.9181,-112.8903,PAINTED ROCK DAM,99,85337
Greasewood,35.5279,-109.8613,HOPI ,78,86505
Santa Rosa,32.3326,-112.0464,SELLES ,92,85634
Icehouse Canyon,33.3553,-110.7965,GLOBE ,84,85501
Sells,31.9202,-111.8775,SELLES ,92,85634
El Prado Estates,32.7062,-114.5215,YUMA QUARTERMASTER DEPOT,97.5,85365
Mayer,34.4233,-112.2408,CORDES,83,86333
Spring Valley,34.3531,-112.1513,CORDES,83,86333
Tucson Estates,32.1792,-111.1254,TUCSON,93,85713 85735
San Carlos,33.35,-110.4654,SAN CARLOS #1 ,89,85550
Queen Creek,33.2367,-111.6389,MESA,96,85142
Dateland,32.8209,-113.5418,TACNA,99.5,85333 85347
Lake Montezuma,34.6414,-111.796,MONTEZUMA CASTLE NM,83,86335 86342
Sacaton Flats Village,33.0559,-111.65899999999999,CASA GRANDE NATL MONUMENT,93.5,85147 85128
Ventana,32.4681,-112.2434,AJO,95,85634 85321
Cedar Creek,33.903,-110.1929,LIMESTONE CANYON ,74,85941
Pima,32.8886,-109.8437,SAFFORD AGRICULTURAL CENTER,87.5,85543
San Simon,32.2679,-109.2308,SAN SIMON,84.5,85632
Stotonic Village,33.1528,-111.8167,CASA GRANDE NATL MONUMENT,93.5,85248 85147
Jakes Corner,34.0083,-111.3202,PAYSON ,82,85541
Tees Toh,35.4849,-110.3989,HOPI ,78,86047
Yuma,32.5991,-114.5488,YUMA MCAS - COOP,98.5,85365 85364 85369
McNary,34.0924,-109.8541,MC NARY,68,85935 85930
Avra Valley,32.4195,-111.3393,TUCSON,93,85653
Ak-Chin Village,33.0197,-112.0808,PHOENIX AIRPORT,101,85139
Verde Village,34.711999999999996,-111.994,TUZIGOOT,88,86326
Nogales,31.3624,-110.9336,NOGALES INTL AP,84,85621
Sunwest,33.650999999999996,-113.4091,SMITH PEAK ,95,85348
Elgin,31.668000000000003,-110.5347,ELGIN,76.5,85611
Window Rock,35.6705,-109.0639,WINDOW ROCK AIRPORT,72.5,86515
Bryce,32.9258,-109.8229,SAFFORD AGRICULTURAL CENTER,87.5,85543
Dilkon,35.3606,-110.3155,HOPI ,78,86047
Bowie,32.3247,-109.4842,SAN SIMON,84.5,85605
Arivaca Junction,31.739,-111.0738,GREEN VALLEY,88.5,85645
Arizona City,32.7506,-111.6707, CITY,92.5,85193 85123
Meadview,35.9532,-114.0789,TRUXTON CANYON ,85.5,86444
Walnut Creek,35.1312,-114.1267,KINGMAN AIRPORT,87.5,86413
Fort Thomas,33.0222,-109.9665,BLACK HILLS,89.5,85536
Sun Lakes,33.2172,-111.8695,TEMPE,96,85248
San Jose,32.8169,-109.5957,SAFFORD MUNICIPAL AP,90.5,85546
Mead Ranch,34.3462,-111.1428,PROMONTORY ,69,85541
Central,32.8692,-109.7908,SAFFORD AGRICULTURAL CENTER,87.5,85531 85543
White Mountain Lake,34.3441,-109.9878,SHOW LOW AIRPORT,70,85912 85901
Ganado,35.7016,-109.5504,WINDOW ROCK AIRPORT,72.5,86505
Kino Springs,31.3641,-110.8095,NOGALES INTL AP,84,85621
Cibecue,34.0332,-110.4854,LIMESTONE CANYON ,74,85911
Donovan Estates,32.7094,-114.6782,YUMA QUARTERMASTER DEPOT,97.5,85364
Salome,33.7778,-113.6061,SMITH PEAK ,95,85348
Tanque Verde,32.2687,-110.7437,DESTINY RANCH,91.5,85749 85748
Picacho,32.709,-111.4907,PICACHO 8 SE,93,85141
Catalina Foothills,32.3041,-110.8835,SAGUARO ,93,85718 85750 85715 85728
Taylor,34.4393,-110.1018,SHOW LOW AIRPORT,70,85939
Congress,34.1526,-112.8642,STANTON ,90,85332
Swift Trail Junction,32.7305,-109.7147,NOON CREEK ,81,85546
Oracle,32.6085,-110.7826,ORACLE STATE PARK,83,85623
Supai,36.2299,-112.6926,NIXON FLATS ,74.5,86435
Truxton,35.486999999999995,-113.5607,MUSIC MOUNTAIN ,81,86411 86434
Nelson,32.4298,-111.2649,TUCSON,93,85653
Stanfield,32.8793,-111.9636, CITY,92.5,85172
Hunter Creek,34.3054,-111.0159,PROMONTORY ,69,85541
Cameron,35.8537,-111.4269,WUPATKI NM,88.5,86020
Jerome,34.7466,-112.1072,JEROME,83.5,86331
Alamo Lake,34.2588,-113.5079,ALAMO DAM,94.5,85357
Coolidge,32.9395,-111.5261,CASA GRANDE NATL MONUMENT,93.5,85194 85128
Carefree,33.8234,-111.9161,CAREFREE,92,85377
Pinedale,34.3208,-110.2599,LIMESTONE CANYON ,74,85934
Huachuca City,31.6308,-110.3422,FT HUACHUCA PIONEER AIRFIELD,80,85616
Topock,34.7206,-114.478,HAVASU ,98.5,86436
Mojave Ranch Estates,34.9449,-114.5907,HAVASU ,98.5,86440
Wagon Wheel,34.1976,-110.0272,LAKESIDE ,73.5,85929 85901
San Luis,32.4911,-114.7089,YUMA MCAS - COOP,98.5,85350 85349
Cottonwood,34.7194,-112.0015,TUZIGOOT,88,86326
Golden Valley,35.205999999999996,-114.2327,UNION PASS ,90,86413
Paradise Valley,33.5434,-111.9595,SCOTTSDALE MUNICIPAL AP,98.5,85253
Palominas,31.3838,-110.1212,CORONADO NATIONAL MEMORIAL,76.5,85615
Oak Springs,35.4759,-109.1319,WINDOW ROCK AIRPORT,72.5,86511
East Verde Estates,34.2983,-111.3645,PAYSON ,82,85541
Thatcher,32.832,-109.7595,SAFFORD AGRICULTURAL CENTER,87.5,85552
Florence,33.059,-111.4209,CASA GRANDE NATL MONUMENT,93.5,85132
Charco,32.2474,-112.6001,AJO,95,85321
Linden,34.2625,-110.1424,SHOW LOW AIRPORT,70,85901
So-Hi,35.2527,-114.1415,KINGMAN AIRPORT,87.5,86413
Valle Vista,35.4109,-113.8627,KINGMAN AIRPORT,87.5,86401
Rillito,32.4157,-111.1549,TOHONO CHUL,89.5,85654 85653
Safford,32.8318,-109.7006,SAFFORD AGRICULTURAL CENTER,87.5,85546
Rye,34.0979,-111.3542,PAYSON ,82,85541
Gisela,34.1015,-111.2895,PAYSON ,82,85541
Claypool,33.406,-110.8421,GLOBE ,84,85539
South Tucson,32.1955,-110.9692,TUCSON INTERNATIONAL AIRPORT,93,85713
Chilchinbito,36.5027,-110.0512,BETATAKIN,77.5,86033
Chinle,36.1504,-109.5793,CANYON DE CHELLY,81.5,86503
Rock Point,36.7173,-109.6287,TEEC NOS POS,84.5,86545
Santa Cruz,33.2326,-112.1593,PHOENIX AIRPORT,101,85339
Peeples Valley,34.2773,-112.7654,STANTON ,90,85362 86332
Camp Verde,34.5699,-111.8573,VERDE ,88.5,86322
Douglas,31.3602,-109.5394,DOUGLAS,81,85608 85607 85655
Beaver Dam,36.9071,-113.9363,BEAVER DAM,96.5,86432
Many Farms,36.3532,-109.6271,CANYON DE CHELLY,81.5,86538 86503
Hayden,32.9995,-110.7814,HORSE CAMP CANYON ,88,85135 85192
Cibola,33.3733,-114.6792,QUARTZSITE,100,85334 85328
Pinetop-Lakeside,34.1486,-109.9658,LAKESIDE ,73.5,85935 85929
Pine Lake,35.0887,-113.8739,MOSS BASIN ,77.5,86401
El Capitan,33.2383,-110.7833,GLOBE ,84,85192 85501
Naco,31.343000000000004,-109.9337,BISBEE,75,85603 85620
Valentine,35.3886,-113.6591,MUSIC MOUNTAIN ,81,86437
Ali Chukson,31.9114,-111.8018,SELLES ,92,85634
Arlington,33.3346,-112.7747,PAINTED ROCK DAM,99,85322
Oljato-Monument Valley,36.9867,-110.191,BETATAKIN,77.5,84536
Red Mesa,36.9664,-109.3828,TEEC NOS POS,84.5,86514
Whetstone,31.7011,-110.3398,FT HUACHUCA PIONEER AIRFIELD,80,85616
Tsaile,36.3033,-109.2157,BEAVER SPRING,70,86556 86507
Mohave Valley,34.9008,-114.5732,HAVASU ,98.5,86440
Prescott,34.585,-112.4475,PRESCOTT,79,86305 86301 86303 86313 86302 86304
Clay Springs,34.3592,-110.3043,LIMESTONE CANYON ,74,85923
Pinetop Country Club,34.1163,-109.891,MC NARY,68,85935
Centennial Park,36.9538,-112.9813,HURRICANE ,83.5,86021 86022
Somerton,32.6009,-114.699,YUMA MCAS - COOP,98.5,85350
Gadsden,32.5564,-114.781,YUMA MCAS - COOP,98.5,85336
Kayenta,36.7144,-110.259,BETATAKIN,77.5,86033
Mammoth,32.6853,-110.7292,ORACLE STATE PARK,83,85623
Anthem,33.856,-112.1168,DEER VALLEY,95.5,85086
Christopher Creek,34.3206,-111.0072,PROMONTORY ,69,85541
Duncan,32.7344,-109.0972,DUNCAN,83.5,85534
Goodyear Village,33.1973,-111.8724,TEMPE,96,85248 85121
Utting,33.8544,-113.9129,QUARTZSITE,100,85325
Saddlebrooke,32.5385,-110.8582,MT. LEMMON FIRE DEPT,67,85739
Padre Ranchitos,32.6497,-114.6417,YUMA MCAS - COOP,98.5,85365
Jeddito,35.7697,-110.1305,HOPI ,78,86034
Nutrioso,33.9515,-109.2058,NUTRIOSO,64,85932
New River,33.8835,-112.0858,CAREFREE,92,85086 85087
Anegam,32.3742,-112.035, CITY,92.5,85634
Joseph City,34.9614,-110.3274,WINSLOW MUNICIPAL AP,84.5,86032
Whispering Pines,34.3728,-111.2813,PAYSON ,82,85541
Tonto Basin,33.8361,-111.3003,BARTLETT DAM,90,85553
Chandler,33.2827,-111.8517,TEMPE,96,85248 85249 85226 85224 85225 85286 85246
Sanders,35.2095,-109.3224,SANDERS,76,86512
Clarkdale,34.7501,-112.0549,TUZIGOOT,88,86326 86324
Elephant Head,31.7659,-110.9921,GREEN VALLEY,88.5,85645
Katherine,35.2206,-114.5615,BULLHEAD CITY,100,86429
Moenkopi,36.1124,-111.2212,WUPATKI NM,88.5,86045
South Komelik,31.7145,-111.7744,SELLES ,92,85634
Oxbow Estates,34.1824,-111.34299999999999,PAYSON ,82,85541
Oatman,35.0273,-114.3839,BULLHEAD CITY,100,86413 86433
Chino Valley,34.7594,-112.4107,CHINO VALLEY,80.5,86323
Buckeye,33.4314,-112.6429,LITCHFIELD PARK,98.5,85326 85396
Aguila,33.9376,-113.1665,SMITH PEAK ,95,85320
Bluewater,34.1681,-114.2667,PARKER,100.5,85344
Klagetoh,35.5011,-109.5283,SANDERS,76,86502 86505
Yucca,34.863,-114.1461,MOSS BASIN ,77.5,86438
Haigler Creek,34.2163,-110.9719,PLEASANT VALLEY ,78.5,85554
Wall Lane,32.6573,-114.7105,YUMA MCAS - COOP,98.5,85365
Gu Oidak,31.9206,-112.0233,SELLES ,92,85634
Bullhead City,35.1205,-114.546,BULLHEAD CITY,100,86442 86429 86430 86439
Gold Canyon,33.3715,-111.4369,APACHE JUNCTION,93,85118 85119
Fortuna Foothills,32.6616,-114.3973,YUMA PROVING GROUND,98.5,85367
Vaiva Vo,32.7167,-111.9269, CITY,92.5,85193
Pisinemo,32.0349,-112.3192,SELLES ,92,85634
McNeal,31.6079,-109.6699,MC NEAL,85,85617
Ali Chuk,31.8169,-112.5584,ORGAN PIPE CACTUS NM,94,85321
Bouse,33.8984,-113.9962,QUARTZSITE,100,85325
Kearny,33.0564,-110.9074,SAN CARLOS RESERVOIR,87.5,85137
Ehrenberg,33.6174,-114.4883,QUARTZSITE,100,85334 85346
Amado,31.6968,-111.0583,TUMACACORI NM,79.5,85645 85646
Cave Creek,33.8513,-111.9801,CAREFREE,92,85087 85331 85327
Wide Ruins,35.4175,-109.4994,SANDERS,76,86502
East Globe,33.3511,-110.7061,GLOBE ,84,85550
Litchfield Park,33.5024,-112.3586,LITCHFIELD PARK,98.5,85340
Gila Crossing,33.273,-112.1627,PHOENIX AIRPORT,101,85339
Kaibab,36.8815,-112.7236,GUNSIGHT,84.5,86022
Haivana Nakya,32.0051,-111.7124,SELLES ,92,85634
Houck,35.2714,-109.2236,SANDERS,76,86512 86506
Rio Rico,31.4957,-110.9886,TUMACACORI NM,79.5,85640 85648
Wickenburg,33.9837,-112.7669,STANTON ,90,85390 85358
Buckshot,32.7404,-114.4829,YUMA QUARTERMASTER DEPOT,97.5,85365
Lake of the Woods,34.1547,-109.9936,LAKESIDE ,73.5,85929
Willcox,32.2515,-109.8359,WILLCOX,81.5,85643 85644
Antares,35.4229,-113.8083,MUSIC MOUNTAIN ,81,86401
Miracle Valley,31.3829,-110.1485,CORONADO NATIONAL MEMORIAL,76.5,85615
Summit,32.0619,-110.9483,TUCSON INTERNATIONAL AIRPORT,93,85756
Cienega Springs,34.2008,-114.2089,PARKER,100.5,85344
Oro Valley,32.4223,-110.9767,CATALINA STATE PARK,87.5,85755 85704 85737
Young,34.1189,-110.9559,PLEASANT VALLEY ,78.5,85554
Munds Park,34.9382,-111.6318,BAR M,71.5,86017 86336
Peach Springs,35.5315,-113.4319,DIAMOND M. RANCH,77,86434
San Tan Valley,33.1879,-111.5473,CASA GRANDE NATL MONUMENT,93.5,85143 85140
Peridot,33.3015,-110.4554,SAN CARLOS #1 ,89,85542
Cowlic,31.8049,-111.9876,SELLES ,92,85634
Golden Shores,34.7819,-114.4777,HAVASU ,98.5,86440 86436
Arivaca,31.575,-111.2926,SASABE ,85,85601
Dudleyville,32.9127,-110.7345,HORSE CAMP CANYON ,88,85192
Lazy Y U,35.1369,-113.9685,MOSS BASIN ,77.5,86401
Chloride,35.4097,-114.1972,UNION PASS ,90,86431
Mesquite Creek,34.9606,-114.5714,HAVASU ,98.5,86440
Washington Park,34.3978,-111.2731,BAKER BUTTE,68.5,85541
Campo Bonito,32.5629,-110.6984,ORACLE STATE PARK,83,85623
Nolic,32.0341,-111.955,SELLES ,92,85634
Bagdad,34.5771,-113.1771,BAGDAD,83,86321
Wintersburg,33.4187,-112.8666,PAINTED ROCK DAM,99,85354
Komatke,33.2953,-112.1615,PHOENIX AIRPORT,101,85339
LeChee,36.871,-111.4328,PAGE MUNICIPAL AP,90,86040
Fredonia,36.9617,-112.5195,BUCKSKIN MOUNTAIN ,81,86022
Lukachukai,36.4112,-109.2267,BEAVER SPRING,70,86507
Comobabi,32.0539,-111.8029,SELLES ,92,85634
Cordes Lakes,34.3103,-112.1073,CORDES,83,86333
Scenic,36.7931,-114.0151,BEAVER DAM,96.5,86432
Sehili,36.2807,-109.1814,BEAVER SPRING,70,86556 86507
Wellton,32.6399,-114.214,YUMA,97.5,85356
Globe,33.3869,-110.7514,GLOBE ,84,85501 85502 85532
Sahuarita,31.9328,-110.9654,GREEN VALLEY,88.5,85629 85614
White Hills,35.7242,-114.4004,TRUXTON CANYON ,85.5,86445 86441
Tempe,33.3881,-111.9318,TEMPE,96,85281 85282 85283 85284 85280 85285 85287
Arizona Village,34.8548,-114.5893,HAVASU ,98.5,86440
York,32.9175,-109.196,GUTHRIE ,77.5,85534
Tat Momoli,32.6012,-111.8862, CITY,92.5,85193
Bisbee,31.4126,-109.9178,BISBEE,75,85603
Kingman,35.217,-114.0105,KINGMAN AIRPORT,87.5,86409 86401
Desert Hills,34.5506,-114.3754,LAKE HAVASU CITY,94,86404
Peoria,33.7844,-112.29899999999999,WITTMANN,95.5,85381 85383 85382 85373 85345 85342 85380 85385
Upper Santan Village,33.1152,-111.7419,CASA GRANDE NATL MONUMENT,93.5,85147
Grand Canyon Village,36.0492,-112.1566,GRAND CANYON VISITOR CENTER,77.5,86023
Williamson,34.7082,-112.5342,CHINO VALLEY,80.5,86323 86305
Rio Verde,33.7278,-111.67399999999999,BARTLETT DAM,90,85263
Prescott Valley,34.5982,-112.3178,PRESCOTT,79,86327 86315 86314 86312
Keams Canyon,35.8229,-110.2011,HOPI ,78,86034
Parks,35.2939,-111.9771,CHALENDER,71,86046 86018
Sawmill,35.8924,-109.1538,WINDOW ROCK AIRPORT,72.5,86504
Tumacacori-Carmen,31.5771,-111.0469,TUMACACORI NM,79.5,85640
Bitter Springs,36.6118,-111.6475,PARIA POINT ,78,86040 86036
Why,32.259,-112.7307,AJO,95,85321
Littlefield,36.8663,-113.9358,BEAVER DAM,96.5,86432
Carrizo,33.9867,-110.3314,LIMESTONE CANYON ,74,85941
Fountain Hills,33.6073,-111.7398,SCOTTSDALE MUNICIPAL AP,98.5,85268 85269
Parker,34.0286,-114.2224,PARKER,100.5,85344 85346
Hondah,34.086,-109.9149,PINETOP 2E,70.5,85935 85930
Brenda,33.6721,-113.9379,QUARTZSITE,100,85348
Seba Dalkai,35.4816,-110.4562,HOPI ,78,86047
Rough Rock,36.4106,-109.8691,CANYON DE CHELLY,81.5,86503
Tonopah,33.488,-112.9308,PAINTED ROCK DAM,99,85354
Pinion Pines,35.1467,-113.9059,KINGMAN AIRPORT,87.5,86401
Show Low,34.2671,-110.0384,SHOW LOW AIRPORT,70,85901 85902
Winslow West,34.9923,-110.7069,WINSLOW MUNICIPAL AP,84.5,86047
Clacks Canyon,35.2203,-114.0723,KINGMAN AIRPORT,87.5,86413 86409 86402
Tonalea,36.3218,-110.9667,BETATAKIN,77.5,86044
Glendale,33.5797,-112.2258,YOUNGTOWN,97,85301 85303 85302 85304 85306 85308 85305 85307 85309 85310 85311 85312 85318
McConnico,35.1636,-114.0898,KINGMAN AIRPORT,87.5,86413 86401
Apache Junction,33.3985,-111.5351,APACHE JUNCTION,93,85119 85120 85117 85178
Strawberry,34.4018,-111.5002,NATURAL BRIDGE,77,85544
Martinez Lake,32.9843,-114.4722,YUMA PROVING GROUND,98.5,85365
Grand Canyon West,35.9998,-113.8103,TRUXTON CANYON ,85.5,86434
Sweet Water Village,33.1274,-111.8424,CASA GRANDE NATL MONUMENT,93.5,85121
Superior,33.2851,-111.1109,APACHE JUNCTION,93,85173
Red Rock,32.561,-111.3745,PICACHO 8 SE,93,85131 85145 85658
Sierra Vista,31.563000000000002,-110.3153,SIERRA VISTA,76.5,85650 85635 85613 85670 85671
Rainbow City,33.8731,-109.9763,PINETOP 2E,70.5,85941
Sierra Vista Southeast,31.4525,-110.21600000000001,CARR ,80,85650 85615 85636
Willow Valley,34.9296,-114.6159,HAVASU ,98.5,86440
Cactus Forest,32.9578,-111.31700000000001,CASA GRANDE NATL MONUMENT,93.5,85132
East Fork,33.8081,-109.9228,MOUNTAIN LION ,70,85941
Lupton,35.3548,-109.0528,SANDERS,76,86508
Gila Bend,32.9662,-112.7155,PAINTED ROCK DAM,99,85337
Wellton Hills,32.6232,-114.1453,TACNA,99.5,85356
Citrus Park,33.5304,-112.444,LITCHFIELD PARK,98.5,85355 85340
Casas Adobes,32.3423,-111.0114,TOHONO CHUL,89.5,85704 85741 85742 85752
Turkey Creek,33.8011,-109.9461,MOUNTAIN LION ,70,85941
Mountainaire,35.092,-111.6493,FLAGSTAFF,70.5,86001
Drexel Heights,32.1457,-111.0479,TUCSON INTERNATIONAL AIRPORT,93,85757 85746
Central Heights-Midland City,33.4,-110.8153,GLOBE ,84,85501
Maish Vaya,32.1703,-112.1342,SELLES ,92,85634
Toyei,35.7043,-109.93700000000001,HOPI ,78,86505
Sacaton,33.0793,-111.7683,CASA GRANDE NATL MONUMENT,93.5,85147
Miami,33.3951,-110.8722,GLOBE ,84,85539
Sun Valley,34.9835,-110.0374,PETRIFIED FOREST NP,78,86029
Rancho Mesa Verde,32.5944,-114.6551,YUMA MCAS - COOP,98.5,85350
Page,36.9425,-111.5071,PAGE MUNICIPAL AP,90,86040 86036
Pimaco Two,31.9666,-110.4663,KARTCHNER CAVERNS,77.5,85602
Shonto,36.5893,-110.6607,BETATAKIN,77.5,86054
Geronimo Estates,34.3695,-111.3617,NATURAL BRIDGE,77,85541
Clifton,33.0249,-109.2883,GUTHRIE ,77.5,85533
Flowing Wells,32.2937,-111.01100000000001,TOHONO CHUL,89.5,85705
Maricopa Colony,33.3626,-112.2267,LITCHFIELD PARK,98.5,85339
Eagar,34.1058,-109.2956,SPRINGERVILLE,72,85938 85925
Mesa del Caballo,34.286,-111.2952,PAYSON ,82,85541
Round Valley,34.1877,-111.3018,PAYSON ,82,85541
Flagstaff,35.1872,-111.6195,FLAGSTAFF,70.5,86001 86011 86004 86002 86005
Dragoon,32.0263,-110.0365,PEARCE - SUNSITES,81.5,85609
Copper Hill,33.4379,-110.7516,GLOBE ,84,85501
